#dP2023  7 29 18  0  0.00000000      96 __u+U ITR00 EXT  IAC
## 2272 583200.00000000   900.00000000 60154 0.7500000000000
+  119   C06C07C08C09C10C11C12C13C14C16C19C20C21C22C23C24C25
+        C26C27C28C29C30C32C33C34C35C36C37C38C39C40C41C42C43
+        C44C45C46E02E03E04E05E07E08E09E10E11E12E13E14E15E18
+        E19E21E24E25E26E27E30E31E33E34E36G01G02G03G04G05G06
+        G07G08G09G10G11G12G13G14G15G16G17G18G19G20G21G22G23
+        G24G25G26G27G28G29G30G31G32J02J03J04R01R02R03R04R05
+        R07R08R09R11R12R13R14R15R16R17R18R19R20R21R22R24R25
++        11  9 10 11  9  9  9 10  8 11  9  9  7  9  9  9  7
++         8  8  8  9  9 10  8  7  9  8  7 10 10  8 10  7  8
++         8  8  7  7  9  9  9  7  8 10  6  7  7  7  7  6  7
++         9  8  7  6  6  7  8  6  7  7  6  7  7  8  7  7  6
++         7  7  8  7  7  6  8  7  7  7  7  6  8  7  6  7  7
++         7  6  7  8  7  7  8  8  8 10  7 10  9  7  9  8  8
++         7  8  8  9  8  7  9  8  9  8  9  8  9  7  6  8  8
%c M  cc GPS ccc cccc cccc cccc cccc ccccc ccccc ccccc ccccc
%c cc cc ccc ccc cccc cccc cccc cccc ccccc ccccc ccccc ccccc
%f  0.0000000  0.000000000  0.00000000000  0.000000000000000
%f  0.0000000  0.000000000  0.00000000000  0.000000000000000
%i    0    0    0    0      0      0      0      0         0
%i    0    0    0    0      0      0      0      0         0
/* IAC                                ULTRA-RAPID PREDICTION
/* S/V CLOCKS ARE ALIGNED TO GNSS TIME                      
/* G:C1WC2W R:C1PC2P E:C1XC5X C:C2IC6I J:C1CC2S             
/* PCV:IGS20_2247 OL/AL:FES2004  NONE     YN ORB:CoN CLK:CoN
*  2023 07 30  4 45  0.00000000
PC06 -19514.833154  28857.765821 -23924.340015    736.397202
PC07  -6517.325184  40071.962202 -10866.453251    148.930533
PC08   -955.282523  22666.399071  35547.311519    409.795875
PC09 -10769.998686  27804.647511 -29598.536927    355.174383
PC10  -1336.399479  41467.700637  -5232.202151   -129.720962
PC11  18163.674039 -20133.202327  -6595.313346    752.562252
PC12  23612.699632  -9598.126862  11414.651522    828.686916
PC13   5651.213719  26237.337949  32730.508641    324.939300
PC14   6902.538319 -21882.376460 -15914.289589    141.190506
PC16 -21206.800187  28399.326778 -22803.089845    -14.322380
PC19   -521.842159  26704.905271   8056.335648   -949.343705
PC20 -11365.967550  15053.354833  20560.666674    399.402529
PC21  16235.991797   6700.922472 -21669.019282   -941.709143
PC22  11203.904397  23579.851660  -9826.273378   -373.903462
PC23 -16802.361578 -16979.610017  14437.004535   -923.972020
PC24  21053.195031  -5881.956349  17356.257538    228.242880
PC25   1611.069239 -16482.872545  22452.979657    178.596608
PC26  26984.758177   6523.036005   2997.516409   -155.930155
PC27 -21614.134196   2210.161719 -17538.458286    176.969022
PC28  -9685.686205 -12687.079592 -22889.272287    132.129698
PC29  -9143.681492  22018.507107  14490.769015    154.033121
PC30 -21891.924843  17057.825301  -3011.864582     -2.818896
PC32 -16312.681349  -6723.750843  21634.072951   -535.368286
PC33    409.998776 -26706.764056  -8119.464992   -924.753862
PC34  21393.248064 -17830.208874   1638.196744    225.891258
PC35   9865.157914  12665.027588  22813.134941    578.305937
PC36  -2843.939598  16192.791098 -22519.393396   -302.809517
PC37 -26705.019865  -7784.115053  -2064.376642   -799.579335
PC38 -10119.430785  20567.574962  35406.251806     94.853746
PC39 -25296.638085  29052.837259 -17368.060483     -4.064149
PC40 -11971.011535  37472.466960 -14776.025237    -31.132421
PC41 -10999.837139 -23958.266076   9218.083117   -895.184924
PC42  12019.793002 -13722.512183 -21087.604621   -594.810658
PC43   9884.904361 -22143.434557 -13808.394353     32.981741
PC44  21493.267474  -2771.701005  17551.993116    184.267551
PC45  17294.829348  16792.964879 -14069.186465     -7.914272
PC46 -19969.310757   6753.279845 -18261.988584    -72.681859
PE02  13457.664090  25336.567418  -7310.399317     52.681333
PE03   3373.364260  23970.043041 -17028.575276    -40.943844
PE04 -15636.331297  -6657.625234  24242.701584   -177.938731
PE05 -11012.153256  27472.221530    232.118556      4.270296
PE07  18923.222211 -14573.404779 -17486.680697    -63.634445
PE08  15337.132598   7004.313863 -24327.659394   -122.308729
PE09 -18824.988813  14454.977748  17679.812755   -102.351807
PE10 -29245.308716   1735.054218  -4203.488927   -552.270755
PE11 -27717.630384   8258.223991   6301.753915   2607.810864
PE12 -26182.830218  -4622.834353 -13032.236137   -637.961183
PE13  27970.374813  -7884.539634  -5633.864151    -19.366382
PE14 -13585.491264  20365.972162  -3748.736155    296.646581
PE15  25974.297679   4770.008561  13368.625597    -41.065754
PE18   8683.970179 -29922.048899  -7128.184943    354.320412
PE19  -1250.224186 -25350.343139  15238.933588  -1964.094940
PE21   2354.687268 -20546.931877  21183.085606   -543.662924
PE24 -18069.362244   2973.954846 -23259.600103   -237.433157
PE25  -2660.832079  20330.108989 -21338.108407   -609.069217
PE26  12808.907603 -16004.338627 -21360.045802    177.793585
PE27  17680.236527  -3634.387447  23469.145395   -111.770690
PE30  22332.545217  15676.101610  11483.769544   -376.593403
PE31 -22413.118548 -15236.979088 -11890.404399     -1.509264
PE33  -8074.536178 -14656.477714 -24420.176151     -2.081198
PE34   8860.097931  14431.852538  24266.538055    -58.787127
PE36 -13578.664052  15743.852591  21064.274280    -93.433841
PG01  -6889.270707 -13809.611435 -22006.314910    170.672598
PG02    366.263211 -15088.248549 -21338.502281   -570.951581
PG03 -11978.732702 -22975.986377  -6250.203790   -210.796855
PG04  -2836.930586 -20714.617340  16319.951580    110.388491
PG05   -609.363761  19050.084699  18270.461816   -136.835778
PG06 -25748.353099   5484.679021   3947.334334    572.666997
PG07 -21832.603368  -7489.078196  14025.048761    110.502013
PG08   4840.561719 -25062.411994  -6626.420784   -134.717679
PG09 -10618.282752 -12705.969175  20678.935826    -99.674493
PG10  18713.517784   4450.209889 -18277.025540    -47.201261
PG11 -16809.937033  12509.584669  16301.371974   -297.932080
PG12   7608.611188  23783.119336  -9434.805317   -406.785966
PG13 -13222.229572  22895.035899   -674.964968    553.639809
PG14 -19635.037993  -7537.864953 -16295.831997    138.148447
PG15   -964.509000  25439.465597  -7573.392259     62.773527
PG16   6486.101203 -15760.421140  19942.188153   -474.737193
PG17 -17099.727159   4744.124266 -19365.107326    721.908147
PG18  23359.225615   5495.321565  11567.685180   -364.135371
PG19 -18376.472094  11360.839871 -15437.017564    350.713996
PG20  -9359.271889  12412.646926  21577.025936    419.966330
PG21   2764.542654 -15403.380814 -20784.972348    151.499897
PG22  17612.278432 -15230.010609 -12178.392160    519.923375
PG23  19966.322044  15081.174039  -9149.087730     48.958204
PG24   2587.045079  15772.317885 -21569.835338   -273.900184
PG25  17392.234958  20126.343527   2055.850866    459.163114
PG26  14792.044659  -6645.348661  20958.477276    234.815281
PG27  12781.234467 -22555.585407   4402.033804    -12.715816
PG28  25966.962053  -5298.907610   1730.182788     80.044107
PG29   8500.580907  14113.083285  20759.524051   -606.704799
PG30 -26210.078412   -830.830699   5157.582942   -500.497594
PG31  21514.289599 -10509.646540  11756.501606   -220.956293
PG32  17216.611309  -8392.483152 -18134.846911   -531.017060
PJ02 -21858.818024  20107.050424 -25301.924077     -1.927896
PJ03 -29857.265406  28572.665905  13215.978887     -0.483364
PJ04 -25443.102710  29351.888191  22304.499179     97.865774
PR01  10950.827329   3867.145632 -22710.997399     62.432696
PR02   8690.509603 -15306.479116 -18391.102311    -22.582366
PR03   1497.783434 -25207.620045  -3340.721830     82.362961
PR04  -6033.912922 -20982.036790  13207.825320    196.682987
PR05 -10460.909583  -5434.017475  22627.237727    116.539897
PR07  -1191.318189  25375.371114   2626.915231     61.293560
PR08   6252.213352  20885.026941 -13214.044550    -71.884851
PR09 -14305.879297   4004.374781 -20735.246515    133.921537
PR11  16903.658813  15447.670885 -11203.890333   -117.877119
PR12  22744.354814   8500.990895   7866.578792     29.623654
PR13  15718.025728  -2309.579964  19948.751038    -37.612905
PR14  -2412.007100 -13365.462295  21614.819011     25.030509
PR15 -17596.717281 -15519.497524  10045.110337     87.428911
PR16 -22820.956476  -8606.823942  -7518.038743     17.198608
PR17   9952.204705 -15149.719062 -17966.507661      4.291042
PR18  -6251.754039  -8473.610043 -23224.040974     94.159507
PR19 -18499.756233    880.372151 -17539.496961   -241.636633
PR20 -22242.988717  12414.671495   1648.766348    -97.431182
PR21  -8945.604004  14769.534571  18755.116167    -26.501096
PR22   7069.698261   8540.378548  22994.345818    104.157986
PR24  21571.029869 -13452.016256  -2230.690460    -18.511410
PR25 -10512.733487  14893.566660  17830.948602     45.072358
EOF
